[{"OBJECT_NAME":"GRUS-1C","OBJECT_ID":"2021-022B","EPOCH":"2026-03-09T22:02:59.067744","MEAN_MOTION":14.98740486,"ECCENTRICITY":0.00125084,"INCLINATION":97.5524,"RA_OF_ASC_NODE":315.2446,"ARG_OF_PERICENTER":300.8214,"MEAN_ANOMALY":59.1778,"EPHEMERIS_TYPE":0,"CLASSIFICATION_TYPE":"U","NORAD_CAT_ID":47933,"ELEMENT_SET_NO":999,"REV_AT_EPOCH":27103,"BSTAR":0.00015887452,"MEAN_MOTION_DOT":1.857e-5,"MEAN_MOTION_DDOT":0},{"OBJECT_NAME":"STARLINK-4626","OBJECT_ID":"2022-105AP","EPOCH":"2026-03-09T15:47:46.768416","MEAN_MOTION":15.0126201,"ECCENTRICITY":0.00022731,"INCLINATION":97.6025,"RA_OF_ASC_NODE":310.1773,"ARG_OF_PERICENTER":61.7447,"MEAN_ANOMALY":298.4007,"EPHEMERIS_TYPE":0,"CLASSIFICATION_TYPE":"U","NORAD_CAT_ID":53685,"ELEMENT_SET_NO":999,"REV_AT_EPOCH":19323,"BSTAR":-4.978778e-6,"MEAN_MOTION_DOT":-1.22e-6,"MEAN_MOTION_DDOT":0}]
